#aV2013  1 20  0  0  0.00000000     288 DD+AD WGS84 FIT  NGA
## 1724      0.00000000   300.00000000 56312 0.0000000000000
+   31     1  2  3  4  5  6  7  8  9 10 11 12 13 14 15 16 17
+         18 19 20 21 22 23 24 25 26 28 29 30 31 32  0  0  0
+          0  0  0  0  0  0  0  0  0  0  0  0  0  0  0  0  0
+          0  0  0  0  0  0  0  0  0  0  0  0  0  0  0  0  0
+          0  0  0  0  0  0  0  0  0  0  0  0  0  0  0  0  0
++         2  2  2  2  2  2  2  2  2  2  2  2  2  2  2  2  2
++         2  2  2  2  2  2  2  2  2  2  2  2  2  2  2  0  0
++         0  0  0  0  0  0  0  0  0  0  0  0  0  0  0  0  0
++         0  0  0  0  0  0  0  0  0  0  0  0  0  0  0  0  0
++         0  0  0  0  0  0  0  0  0  0  0  0  0  0  0  0  0
%c cc cc ccc ccc cccc cccc cccc cccc ccccc ccccc ccccc ccccc
%c cc cc ccc ccc cccc cccc cccc cccc ccccc ccccc ccccc ccccc
%f  0.0000000  0.000000000  0.00000000000  0.000000000000000
%f  0.0000000  0.000000000  0.00000000000  0.000000000000000
%i    0    0    0    0      0      0      0      0         0
%i    0    0    0    0      0      0      0      0         0
/*      NGA, ST. LOUIS,MO.                                  
/*   EPHEMERIS COMPUTED FROM  1 DAYS OF DATA
/*   EPOCHA SMOOTHER  
/* CCCCCCCCCCCCCCCCCCCCCCCCCCCCCCCCCCCCCCCCCCCCCCCCCCCCCCCCC
*  2013  1 20 15 20  0.00000000                                                 
P  1   8517.699072  13954.144311 -20968.227442    294.608138                    
V  1 -26381.340629   3169.108779  -8551.404112      0.024186                    
P  2  14682.399012 -14118.008905  16940.228865    415.483063                    
V  2  21593.616539     35.442580 -19392.264477      0.012941                    
P  3  -8342.461643  25033.845375   1034.457938    157.498242                    
V  3  -3179.514695  -2962.417594  31255.948923      0.049144                    
P  4  25325.391421  -6352.590395   5370.453567    110.520345                    
V  4   7409.138551   2549.349658 -30055.182806      0.110770                    
P  5   2433.942096 -19106.710496  18194.466860   -379.582518                    
V  5  14920.959336  17930.923413  16943.046555     -0.020066                    
P  6 -13691.036152  21538.979748   6779.534237    381.521608                    
V  6   -197.574764  -9297.057270  29892.497379     -0.138609                    
P  7  22442.523436   6972.113693  12692.812987    171.142488                    
V  7 -15748.540553   2860.048404  26085.091045      0.043915                    
P  8  26792.130808   1530.370840   1731.977254      4.130814                    
V  8  -2046.299254   1085.496634  32070.416265      0.002895                    
P  9   7663.166548 -14876.631946 -21171.540541    215.017088                    
V  9  25516.289415  -1915.167955  10811.862943      0.026761                    
P 10  16334.054729  -2489.544805  20585.226973    -66.907810                    
V 10  14427.730264  22563.245307  -8190.101465     -0.013830                    
P 11   2372.291237  17070.746488 -20607.399712   -345.402600                    
V 11 -24100.429034   8661.875057   4785.219010     -0.036931                    
P 12 -10944.520522 -23600.482215  -5880.189488    113.397071                    
V 12   5652.387545   5111.893078 -30942.441651      0.020648                    
P 13   9785.454978  11722.994572  21577.388590    151.068310                    
V 13 -14405.164836  23642.664995  -6381.218623     -0.028908                    
P 14 -17870.152468   7261.212561 -18001.885243    219.767383                    
V 14   9905.938652 -21102.739239 -18284.999283      0.004354                    
P 15   2271.915215 -24248.039398 -10310.568105   -105.741011                    
V 15   8114.795546 -10861.398093  27631.295442     -0.011622                    
P 16  -3986.580859  17664.848972  19300.465618   -251.911970                    
V 16 -14213.868848 -20087.129659  15761.742343     -0.002600                    
P 17  17900.372840  -9153.761498 -17029.217073     57.798048                    
V 17  -8358.199822  20542.939165 -19835.715165     -0.036743                    
P 18 -19889.093545 -13209.791934 -11611.467540    235.318449                    
V 18  -6254.386893 -14273.206740  25739.137609      0.018823                    
P 19  -6841.698011  23954.692739  -8670.698251   -341.520704                    
V 19  -7983.203780   8120.377026  29392.692738     -0.032748                    
P 20  12616.937105  22799.520258  -5534.579155     80.781578                    
V 20  -7059.403105  -3138.070328 -29905.061438      0.014868                    
P 21 -24742.012366  -4977.343903   9649.548172   -275.711267                    
V 21  11092.119105  -3805.780437  27491.287768     -0.022912                    
P 22 -18099.223847   -573.246633 -19287.118861    156.252205                    
V 22 -12988.030475 -21392.599310  12570.726225      0.008292                    
P 23   3615.593977  20042.585771  16901.093246    122.022807                    
V 23 -11110.425834  18530.096843 -20042.074430     -0.037664                    
P 24  -4388.287380 -14793.514215 -21619.620051      0.337786                    
V 24  27290.307966  -3024.641653  -3443.513921     -0.006584                    
P 25 -17920.516759 -18975.417024   5118.428984     64.203500                    
V 25  -1888.775735  -6672.426647 -31051.185891      0.026510                    
P 26  12658.667701 -23123.699291   -871.389051   -131.525530                    
V 26   2322.875968    934.833932  32409.340691      0.138366                    
P 28  18012.474591   5940.812838 -18095.893361    225.195648                    
V 28  11731.939254  21037.950134  17824.447588      0.035119                    
P 29 -10196.070562 -12303.555164  21276.461952    399.804342                    
V 29  12927.573954 -23560.540736  -7408.978806      0.037704                    
P 30 -11691.571454   9432.319359  21552.964782   -247.385473                    
V 30 -18448.380319 -21335.723677   -679.902631      0.110026                    
P 31 -23043.240465   8652.996485  10517.857402    298.540343                    
V 31 -13040.562972   -771.956996 -28183.628199      0.018916                    
P 32   4858.865362  23904.279502 -10959.211515   -527.955329                    
V 32  -9107.119744 -10878.144880 -26877.049457     -0.034910                    
EOF
